NORAD_CAT_ID,OBJECT_NAME,OBJECT_TYPE,EPOCH,MEAN_MOTION,ECCENTRICITY,INCLINATION,RA_OF_ASC_NODE,ARG_OF_PERICENTER,MEAN_ANOMALY,BSTAR,MEAN_MOTION_DOT,MEAN_MOTION_DDOT,TLE_LINE0,TLE_LINE1,TLE_LINE2,SEMIMAJOR_AXIS,PERIOD,APOGEE,PERIGEE,DECAYED
51779.0,STARLINK-3611,PAYLOAD,2024-05-29 21:40:49,15.08839368,0.0001343,53.2182,11.6833,95.2208,264.8937,1.2617e-05,-8.7e-07,0.0,0 STARLINK-3611,1 51779U 22017M   24150.90335012 -.00000087  00000-0  12617-4 0  9993,2 51779  53.2182  11.6833 0001343  95.2208 264.8937 15.08839368124626,6917.882,95.438,540.676,538.818,0.0
51779.0,STARLINK-3611,PAYLOAD,2024-05-30 15:10:03,15.08840484,0.00013,53.2182,8.413,90.7064,269.4077,5.1292e-05,5.29e-06,0.0,0 STARLINK-3611,1 51779U 22017M   24151.63198886  .00000529  00000-0  51292-4 0  9992,2 51779  53.2182   8.4130 0001300  90.7064 269.4077 15.08840484124732,6917.879,95.438,540.643,538.845,0.0
51779.0,STARLINK-3611,PAYLOAD,2024-05-30 21:31:36,15.08839675,0.0001275,53.2183,7.2237,90.231,269.8828,3.7509e-05,3.09e-06,0.0,0 STARLINK-3611,1 51779U 22017M   24151.89694976  .00000309  00000-0  37509-4 0  9992,2 51779  53.2183   7.2237 0001275  90.2310 269.8828 15.08839675124770,6917.881,95.438,540.628,538.864,0.0
51779.0,STARLINK-3611,PAYLOAD,2024-05-31 15:00:51,15.08836187,0.0001285,53.2186,3.9565,100.7813,259.3324,2.4507e-05,1.02e-06,0.0,0 STARLINK-3611,1 51779U 22017M   24152.62559375  .00000102  00000-0  24507-4 0  9992,2 51779  53.2186   3.9565 0001285 100.7813 259.3324 15.08836187124888,6917.892,95.438,540.646,538.868,0.0
51779.0,STARLINK-3611,PAYLOAD,2024-05-31 21:22:24,15.08829985,0.0001354,53.2195,2.7652,92.9201,267.1947,-4.8775e-05,-1.064e-05,0.0,0 STARLINK-3611,1 51779U 22017M   24152.89056101 -.00001064  00000-0 -48775-4 0  9993,2 51779  53.2195   2.7652 0001354  92.9201 267.1947 15.08829985126419,6917.911,95.438,540.713,538.839,0.0
51779.0,STARLINK-3611,PAYLOAD,2024-06-01 06:54:42,15.08839341,0.0001433,53.2197,0.9809,87.978,272.1376,3.01e-05,1.91e-06,0.0,0 STARLINK-3611,1 51779U 22017M   24153.28799424  .00000191  00000-0  30100-4 0  9990,2 51779  53.2197   0.9809 0001433  87.9780 272.1376 15.08839341126474,6917.882,95.438,540.739,538.756,0.0
51779.0,STARLINK-3611,PAYLOAD,2024-06-01 21:13:11,15.08833028,0.0001412,53.2193,358.304,81.2367,278.8785,3.4714e-05,2.64e-06,0.0,0 STARLINK-3611,1 51779U 22017M   24153.88416106  .00000264  00000-0  34714-4 0  9995,2 51779  53.2193 358.3040 0001412  81.2367 278.8785 15.08833028126565,6917.902,95.438,540.744,538.79,0.0
51779.0,STARLINK-3611,PAYLOAD,2024-06-02 06:45:29,15.0884877,0.0001301,53.2187,356.5181,78.1152,281.9986,5.2794e-05,5.53e-06,0.0,0 STARLINK-3611,1 51779U 22017M   24154.28158953  .00000553  00000-0  52794-4 0  9992,2 51779  53.2187 356.5181 0001301  78.1152 281.9986 15.08848770126623,6917.854,95.437,540.619,538.819,0.0
51779.0,STARLINK-3611,PAYLOAD,2024-06-03 06:36:16,15.08844991,0.0001176,53.2187,352.0601,86.8788,273.2338,0.00010444,1.375e-05,0.0,0 STARLINK-3611,1 51779U 22017M   24155.27519135  .00001375  00000-0  10444-3 0  9993,2 51779  53.2187 352.0601 0001176  86.8788 273.2338 15.08844991126774,6917.865,95.437,540.544,538.917,0.0
51779.0,STARLINK-3611,PAYLOAD,2024-06-03 19:19:22,15.08838485,0.0001333,53.2192,349.6825,83.0523,277.0621,6.4427e-05,7.38e-06,0.0,0 STARLINK-3611,1 51779U 22017M   24155.80511695  .00000738  00000-0  64427-4 0  9998,2 51779  53.2192 349.6825 0001333  83.0523 277.0621 15.08838485126858,6917.885,95.438,540.672,538.828,0.0
51779.0,STARLINK-3611,PAYLOAD,2024-06-04 06:27:03,15.08848225,0.0001434,53.218,347.5967,96.1161,263.9995,3.7164e-05,3.04e-06,0.0,0 STARLINK-3611,1 51779U 22017M   24156.26878993  .00000304  00000-0  37164-4 0  9993,2 51779  53.2180 347.5967 0001434  96.1161 263.9995 15.08848225126923,6917.855,95.437,540.712,538.728,0.0
51779.0,STARLINK-3611,PAYLOAD,2024-06-04 19:10:09,15.08838297,0.0001888,53.2128,345.2191,90.5306,269.5903,6.4413e-05,7.37e-06,0.0,0 STARLINK-3611,1 51779U 22017M   24156.79871651  .00000737  00000-0  64413-4 0  9992,2 51779  53.2128 345.2191 0001888  90.5306 269.5903 15.08838297127000,6917.886,95.438,541.057,538.444,0.0
51779.0,STARLINK-3611,PAYLOAD,2024-06-05 12:39:23,15.08839989,0.000192,53.2127,341.9477,93.1308,266.9904,6.7403e-06,-1.81e-06,0.0,0 STARLINK-3611,1 51779U 22017M   24157.52735575 -.00000181  00000-0  67403-5 0  9995,2 51779  53.2127 341.9477 0001920  93.1308 266.9904 15.08839989125624,6917.88,95.438,541.074,538.417,0.0
51779.0,STARLINK-3611,PAYLOAD,2024-06-05 22:11:42,15.08830663,0.0001887,53.2237,340.1639,101.3446,258.7759,8.0608e-05,9.95e-06,0.0,0 STARLINK-3611,1 51779U 22017M   24157.92479988  .00000995  00000-0  80608-4 0  9995,2 51779  53.2237 340.1639 0001887 101.3446 258.7759 15.08830663125687,6917.909,95.438,541.079,538.469,0.0
51779.0,STARLINK-3611,PAYLOAD,2024-06-06 18:51:43,15.0883821,0.000165,53.2227,336.2983,88.5799,271.5382,6.3621e-05,7.25e-06,0.0,0 STARLINK-3611,1 51779U 22017M   24158.78591809  .00000725  00000-0  63621-4 0  9994,2 51779  53.2227 336.2983 0001650  88.5799 271.5382 15.08838210127301,6917.886,95.438,540.892,538.609,0.0
51779.0,STARLINK-3611,PAYLOAD,2024-06-07 18:42:31,15.08830134,6.75e-05,53.2203,331.8385,62.0781,298.028,5.3539e-05,5.64e-06,0.0,0 STARLINK-3611,1 51779U 22017M   24159.77952710  .00000564  00000-0  53539-4 0  9994,2 51779  53.2203 331.8385 0000675  62.0781 298.0280 15.08830134127450,6917.911,95.438,540.243,539.309,0.0
51779.0,STARLINK-3611,PAYLOAD,2024-06-08 04:14:49,15.0883865,0.0001627,53.2224,330.0536,83.723,276.3947,7.877e-05,9.66e-06,0.0,0 STARLINK-3611,1 51779U 22017M   24160.17696163  .00000966  00000-0  78770-4 0  9997,2 51779  53.2224 330.0536 0001627  83.7230 276.3947 15.08838650127516,6917.885,95.438,540.875,538.624,0.0
51779.0,STARLINK-3611,PAYLOAD,2024-06-08 20:08:41,15.08841175,0.0001715,53.2215,327.0789,71.3501,288.7678,8.4056e-06,-1.54e-06,0.0,0 STARLINK-3611,1 51779U 22017M   24160.83936421 -.00000154  00000-0  84056-5 0  9999,2 51779  53.2215 327.0789 0001715  71.3501 288.7678 15.08841175126124,6917.877,95.437,540.928,538.555,0.0
51779.0,STARLINK-3611,PAYLOAD,2024-06-09 04:05:35,15.08851218,0.000116,53.2201,325.5944,68.1424,291.9692,9.9098e-05,1.29e-05,0.0,0 STARLINK-3611,1 51779U 22017M   24161.17055410  .00001290  00000-0  99098-4 0  9999,2 51779  53.2201 325.5944 0001160  68.1424 291.9692 15.08851218127668,6917.846,95.437,540.514,538.909,0.0
51779.0,STARLINK-3611,PAYLOAD,2024-06-09 12:02:33,15.08820747,0.0001136,53.2163,324.1066,82.2748,277.8373,-1.8047e-05,-5.75e-06,0.0,0 STARLINK-3611,1 51779U 22017M   24161.50177677 -.00000575  00000-0 -18047-4 0  9998,2 51779  53.2163 324.1066 0001136  82.2748 277.8373 15.08820747127712,6917.939,95.439,540.59,539.018,0.0
51779.0,STARLINK-3611,PAYLOAD,2024-06-10 03:56:23,15.08843785,9.11e-05,53.2177,321.1325,80.1763,279.9332,-3.6605e-05,-8.7e-06,0.0,0 STARLINK-3611,1 51779U 22017M   24162.16416434 -.00000870  00000-0 -36605-4 0  9996,2 51779  53.2177 321.1325 0000911  80.1763 279.9332 15.08843785127812,6917.869,95.437,540.364,539.104,0.0
51779.0,STARLINK-3611,PAYLOAD,2024-06-10 18:14:51,15.08854323,0.0001201,53.2189,318.4575,84.024,276.0889,8.0252e-05,9.9e-06,0.0,0 STARLINK-3611,1 51779U 22017M   24162.76031722  .00000990  00000-0  80252-4 0  9993,2 51779  53.2189 318.4575 0001201  84.0240 276.0889 15.08854323127902,6917.837,95.437,540.532,538.871,0.0
51779.0,STARLINK-3611,PAYLOAD,2024-06-11 10:08:44,15.08825547,0.0001498,53.2191,315.4852,89.8994,270.217,0.00010844,1.438e-05,0.0,0 STARLINK-3611,1 51779U 22017M   24163.42273284  .00001438  00000-0  10844-3 0  9995,2 51779  53.2191 315.4852 0001498  89.8994 270.2170 15.08825547126518,6917.925,95.438,540.826,538.753,0.0
51779.0,STARLINK-3611,PAYLOAD,2024-06-12 03:37:57,15.08844862,0.0001257,53.2179,312.2114,97.8882,262.2253,0.00010858,1.441e-05,0.0,0 STARLINK-3611,1 51779U 22017M   24164.15136079  .00001441  00000-0  10858-3 0  9995,2 51779  53.2179 312.2114 0001257  97.8882 262.2253 15.08844862128110,6917.866,95.437,540.6,538.861,0.0
51779.0,STARLINK-3611,PAYLOAD,2024-06-12 13:10:17,15.08836048,0.0001658,53.2172,310.4267,106.1289,253.9886,2.5874e-05,1.24e-06,0.0,0 STARLINK-3611,1 51779U 22017M   24164.54880923  .00000124  00000-0  25874-4 0  9994,2 51779  53.2172 310.4267 0001658 106.1289 253.9886 15.08836048128174,6917.892,95.438,540.904,538.61,0.0
51779.0,STARLINK-3611,PAYLOAD,2024-06-12 16:21:03,15.08830482,0.0001433,53.2186,309.8342,89.5258,270.5898,-3.8557e-06,-3.49e-06,0.0,0 STARLINK-3611,1 51779U 22017M   24164.68129503 -.00000349  00000-0 -38557-5 0  9993,2 51779  53.2186 309.8342 0001433  89.5258 270.5898 15.08830482128192,6917.909,95.438,540.766,538.783,0.0
51779.0,STARLINK-3611,PAYLOAD,2024-06-13 13:01:03,15.08838858,0.0001304,53.2189,305.9689,93.9397,266.1744,0.00011552,1.551e-05,0.0,0 STARLINK-3611,1 51779U 22017M   24165.54240701  .00001551  00000-0  11552-3 0  9991,2 51779  53.2189 305.9689 0001304  93.9397 266.1744 15.08838858128327,6917.884,95.438,540.651,538.847,0.0
51779.0,STARLINK-3611,PAYLOAD,2024-06-13 14:36:27,15.08839038,0.0001324,53.2192,305.672,93.8545,266.2598,0.0001178,1.587e-05,0.0,0 STARLINK-3611,1 51779U 22017M   24165.60864748  .00001587  00000-0  11780-3 0  9993,2 51779  53.2192 305.6720 0001324  93.8545 266.2598 15.08839038126844,6917.883,95.438,540.664,538.832,0.0
51779.0,STARLINK-3611,PAYLOAD,2024-06-13 16:11:50,15.08842236,0.0001238,53.2191,305.3769,85.3193,274.7941,0.00011513,1.545e-05,0.0,0 STARLINK-3611,1 51779U 22017M   24165.67488647  .00001545  00000-0  11513-3 0  9998,2 51779  53.2191 305.3769 0001238  85.3193 274.7941 15.08842236126853,6917.874,95.437,540.595,538.882,0.0
51779.0,STARLINK-3611,PAYLOAD,2024-06-14 14:27:14,15.08830711,0.0001337,53.2184,301.212,85.1621,274.9523,6.283e-05,7.12e-06,0.0,0 STARLINK-3611,1 51779U 22017M   24166.60225396  .00000712  00000-0  62830-4 0  9996,2 51779  53.2184 301.2120 0001337  85.1621 274.9523 15.08830711126993,6917.909,95.438,540.699,538.849,0.0
